*******************************************************************************
JPL/HORIZONS               709 Fringilla (A911 CC)         2020-Jun-22 09:26:18
Rec #:     709 (+COV) Soln.date: 2020-May-20_01:11:17   # obs: 2692 (1906-2020)
 
IAU76/J2000 helio. ecliptic osc. elements (au, days, deg., period=Julian yrs):
 
  EPOCH=  2455648.5 ! 2011-Mar-28.00 (TDB)         Residual RMS= .29735
   EC= .1132688573864604   QR= 2.585062837923687   TP= 2456502.3816488092
   OM= 324.5276160694963   W=  16.84590878458424   IN= 16.29341229211802
   A= 2.915272413129088    MA= 190.9235815961233   ADIST= 3.245481988334489
   PER= 4.97768            N= .19800919            ANGMOM= .029182132
   DAN= 2.5964             DDN= 3.22779            L= 340.7331412
   B= 4.6635746            MOID= 1.57787001        TP= 2013-Jul-28.8816488092
 
Asteroid physical parameters (km, seconds, rotational period in hours):
   GM= n.a.                RAD= 47.5865            ROTPER= 52.4
   H= 9.1                  G= .150                 B-V= .715
                           ALBEDO= .034            STYP= X
 
ASTEROID comments: 
1: soln ref.= JPL#83, OCC=0
2: source=ORB
*******************************************************************************
 
 
*******************************************************************************
Ephemeris / WWW_USER Mon Jun 22 09:26:18 2020 Pasadena, USA      / Horizons
*******************************************************************************
Target body name: 709 Fringilla (A911 CC)         {source: JPL#83}
Center body name: Solar System Barycenter (0)     {source: DE431}
Center-site name: BODY CENTER
*******************************************************************************
Start time      : A.D. 1969-Jun-28 00:00:00.0000 TDB
Stop  time      : A.D. 2071-May-04 00:00:00.0000 TDB
Step-size       : 7200 minutes
*******************************************************************************
Center geodetic : 0.00000000,0.00000000,0.0000000 {E-lon(deg),Lat(deg),Alt(km)}
Center cylindric: 0.00000000,0.00000000,0.0000000 {E-lon(deg),Dxy(km),Dz(km)}
Center radii    : (undefined)                                                  
Small perturbers: Yes                             {source: SB431-N16}
Output units    : AU-D
Output type     : GEOMETRIC cartesian states
Output format   : 2 (position and velocity)
Reference frame : Ecliptic of J2000.0
*******************************************************************************
Initial IAU76/J2000 heliocentric ecliptic osculating elements (au, days, deg.):
  EPOCH=  2455648.5 ! 2011-Mar-28.00 (TDB)         Residual RMS= .29735        
   EC= .1132688573864604   QR= 2.585062837923687   TP= 2456502.3816488092      
   OM= 324.5276160694963   W=  16.84590878458424   IN= 16.29341229211802       
  Equivalent ICRF heliocentric equatorial cartesian coordinates (au, au/d):
   X=-3.160124458477501E+00  Y= 7.075434488725827E-01  Z=-1.216032362750073E-01
  VX=-1.182190118818659E-03 VY=-7.028230504924955E-03 VZ=-5.507056004513492E-03
Asteroid physical parameters (km, seconds, rotational period in hours):        
   GM= n.a.                RAD= 47.5865            ROTPER= 52.4                
   H= 9.1                  G= .150                 B-V= .715                   
                           ALBEDO= .034            STYP= X                     
*******************************************************************************
            JDTDB,            Calendar Date (TDB),        delta-T,                      X,                      Y,                      Z,                     VX,                     VY,                     VZ,
******************************************************************************************************************************************************************************************************************
$$SOE
2462380.500000000, A.D. 2029-Sep-01 00:00:00.0000,      69.182605,  5.170982344967915E-01,  2.761033522365676E+00,  7.420468568353998E-01, -9.532541659502845E-03,  3.254258933560366E-03, -8.589739618909537E-04,
2462385.500000000, A.D. 2029-Sep-06 00:00:00.0000,      69.182533,  4.693601979012192E-01,  2.776888380407342E+00,  7.376405137861051E-01, -9.562164637190064E-03,  3.087693738760338E-03, -9.034741433241564E-04,
2462390.500000000, A.D. 2029-Sep-11 00:00:00.0000,      69.182473,  4.214816483492310E-01,  2.791910597074407E+00,  7.330130127132957E-01, -9.588751499335581E-03,  2.921210894597470E-03, -9.474359512953694E-04,
2462395.500000000, A.D. 2029-Sep-16 00:00:00.0000,      69.182423,  3.734776960944955E-01,  2.806100710735099E+00,  7.281670634564360E-01, -9.612330467040887E-03,  2.754860837855775E-03, -9.908522621632988E-04,
2462400.500000000, A.D. 2029-Sep-21 00:00:00.0000,      69.182383,  3.253633089505584E-01,  2.819459508813180E+00,  7.231054105037411E-01, -9.632930287775780E-03,  2.588692756029296E-03, -1.033716338296035E-03,
2462405.500000000, A.D. 2029-Sep-26 00:00:00.0000,      69.182354,  2.771533097698082E-01,  2.831988021573545E+00,  7.178308310887792E-01, -9.650580191322642E-03,  2.422754600362141E-03, -1.076021817399209E-03,
2462410.500000000, A.D. 2029-Oct-01 00:00:00.0000,      69.182338,  2.288623741389022E-01,  2.843687515976375E+00,  7.123461333406401E-01, -9.665309847201228E-03,  2.257093100221926E-03, -1.117762701762528E-03,
2462415.500000000, A.D. 2029-Oct-06 00:00:00.0000,      69.182335,  1.805050282840096E-01,  2.854559489605800E+00,  7.066541544877819E-01, -9.677149323291901E-03,  2.091753778399043E-03, -1.158933347601940E-03,
2462420.500000000, A.D. 2029-Oct-11 00:00:00.0000,      69.182346,  1.320956471794662E-01,  2.864605664675630E+00,  7.007577591142790E-01, -9.686129045979883E-03,  1.926780966555987E-03, -1.199528454763351E-03,
2462425.500000000, A.D. 2029-Oct-16 00:00:00.0000,      69.182368,  8.364845285033311E-02,  2.873827982113137E+00,  6.946598374670507E-01, -9.692279762489715E-03,  1.762217821182632E-03, -1.239543056551912E-03,
2462430.500000000, A.D. 2029-Oct-21 00:00:00.0000,      69.182400,  3.517751285843532E-02,  2.882228595726067E+00,  6.883633038144807E-01, -9.695632505017008E-03,  1.598106340998049E-03, -1.278972509327709E-03,
2462435.500000000, A.D. 2029-Oct-26 00:00:00.0000,      69.182444, -1.330326103527322E-02,  2.889809866459747E+00,  6.818710948572980E-01, -9.696218556028166E-03,  1.434487385446005E-03, -1.317812482067068E-03,
2462440.500000000, A.D. 2029-Oct-31 00:00:00.0000,      69.182501, -6.178011403790937E-02,  2.896574356747964E+00,  6.751861681912019E-01, -9.694069414834451E-03,  1.271400693654697E-03, -1.356058946114364E-03,
2462445.500000000, A.D. 2029-Nov-05 00:00:00.0000,      69.182570, -1.102394493283886E-01,  2.902524824959519E+00,  6.683115008202426E-01, -9.689216765646160E-03,  1.108884903755174E-03, -1.393708165121247E-03,
2462450.500000000, A.D. 2029-Nov-10 00:00:00.0000,      69.182651, -1.586678289051981E-01,  2.907664219942404E+00,  6.612500877201348E-01, -9.681692447131117E-03,  9.469775726173429E-04, -1.430756685126812E-03,
2462455.500000000, A.D. 2029-Nov-15 00:00:00.0000,      69.182741, -2.070519742856262E-01,  2.911995675667736E+00,  6.540049404508670E-01, -9.671528423429462E-03,  7.857151960196919E-04, -1.467201324760056E-03,
2462460.500000000, A.D. 2029-Nov-20 00:00:00.0000,      69.182839, -2.553787670635905E-01,  2.915522505975585E+00,  6.465790858179896E-01, -9.658756756569697E-03,  6.251332292260764E-04, -1.503039165565258E-03,
2462465.500000000, A.D. 2029-Nov-25 00:00:00.0000,      69.182945, -3.036352493329432E-01,  2.918248199424622E+00,  6.389755645819570E-01, -9.643409580234255E-03,  4.652661079302885E-04, -1.538267542456692E-03,
2462470.500000000, A.D. 2029-Nov-30 00:00:00.0000,      69.183060, -3.518086239828633E-01,  2.920176414247300E+00,  6.311974302148521E-01, -9.625519074819252E-03,  3.061472695213550E-04, -1.572884034313495E-03,
2462475.500000000, A.D. 2029-Dec-05 00:00:00.0000,      69.183185, -3.998862548716527E-01,  2.921310973412069E+00,  6.232477477037565E-01, -9.605117443725402E-03,  1.478091746171894E-04, -1.606886454730059E-03,
2462480.500000000, A.D. 2029-Dec-10 00:00:00.0000,      69.183316, -4.478556668849247E-01,  2.921655859793792E+00,  6.151295923999294E-01, -9.582236890812027E-03, -9.716671200804890E-06, -1.640272842944952E-03,
2462485.500000000, A.D. 2029-Dec-15 00:00:00.0000,      69.183450, -4.957045458838298E-01,  2.921215211453159E+00,  6.068460489128388E-01, -9.556909598949006E-03, -1.663996955367331E-04, -1.673041454978438E-03,
2462490.500000000, A.D. 2029-Dec-20 00:00:00.0000,      69.183588, -5.434207385486951E-01,  2.919993317025456E+00,  5.984002100479129E-01, -9.529167709626370E-03, -3.222102373020651E-04, -1.705190755009848E-03,
2462495.500000000, A.D. 2029-Dec-25 00:00:00.0000,      69.183728, -5.909922521233441E-01,  2.917994611218720E+00,  5.897951757867790E-01, -9.499043303615137E-03, -4.771195248356359E-04, -1.736719407005718E-03,
2462500.500000000, A.D. 2029-Dec-30 00:00:00.0000,      69.183872, -6.384072540651961E-01,  2.915223670421389E+00,  5.810340523087294E-01, -9.466568382584225E-03, -6.310996539859086E-04, -1.767626266605687E-03,
2462505.500000000, A.D. 2030-Jan-04 00:00:00.0000,      69.184018, -6.856540716052302E-01,  2.911685208419174E+00,  5.721199510519205E-01, -9.431774851381180E-03, -7.841235664532555E-04, -1.797910373375794E-03,
2462510.500000000, A.D. 2030-Jan-09 00:00:00.0000,      69.184164, -7.327211912210724E-01,  2.907384072217809E+00,  5.630559878120172E-01, -9.394694501107009E-03, -9.361650292034365E-04, -1.827570943578064E-03,
2462515.500000000, A.D. 2030-Jan-14 00:00:00.0000,      69.184307, -7.795972580291710E-01,  2.902325237966075E+00,  5.538452818760848E-01, -9.355358993796208E-03, -1.087198614784592E-03, -1.856607363239780E-03,
